NORAD_CAT_ID,OBJECT_NAME,OBJECT_TYPE,EPOCH,MEAN_MOTION,ECCENTRICITY,INCLINATION,RA_OF_ASC_NODE,ARG_OF_PERICENTER,MEAN_ANOMALY,BSTAR,MEAN_MOTION_DOT,MEAN_MOTION_DDOT,TLE_LINE0,TLE_LINE1,TLE_LINE2,SEMIMAJOR_AXIS,PERIOD,APOGEE,PERIGEE,DECAYED
52564.0,STARLINK-3959,PAYLOAD,2022-09-01 14:00:01,15.08799111,0.0002243,53.2152,143.1967,66.82,8.964,0.003044,0.00048437,0.0,0 STARLINK-3959,1 52564U 22051AH  22244.58335648  .00048437  00000-0  30440-2 0  9997,2 52564  53.2152 143.1967 0002243  66.8200   8.9640 15.08799111  1309,6918.005,95.44,541.422,538.319,0.0
52564.0,STARLINK-3959,PAYLOAD,2022-09-01 22:00:00,15.0884145,0.0002381,53.2152,141.7017,65.2216,22.0641,-0.0015637,-0.00025091,0.0,0 STARLINK-3959,1 52564U 22051AH  22244.91667824 -.00025091  00000-0 -15637-2 0  9992,2 52564  53.2152 141.7017 0002381  65.2216  22.0641 15.08841450  1304,6917.876,95.437,541.388,538.094,0.0
52564.0,STARLINK-3959,PAYLOAD,2022-09-02 06:00:00,15.08831065,0.0002405,53.2149,140.2056,61.8619,37.0083,0.00087925,0.0001373,0.0,0 STARLINK-3959,1 52564U 22051AH  22245.25001157  .00013730  00000-0  87925-3 0  9996,2 52564  53.2149 140.2056 0002405  61.8619  37.0083 15.08831065 17532,6917.908,95.438,541.436,538.109,0.0
52564.0,STARLINK-3959,PAYLOAD,2022-09-02 14:00:01,15.08816097,0.0002315,53.215,138.7075,68.0588,42.4074,0.0028702,0.00045658,0.0,0 STARLINK-3959,1 52564U 22051AH  22245.58334491  .00045658  00000-0  28702-2 0  9993,2 52564  53.2150 138.7075 0002315  68.0588  42.4074 15.08816097  1307,6917.953,95.439,541.42,538.217,0.0
52564.0,STARLINK-3959,PAYLOAD,2022-09-02 22:00:01,15.0885563,0.0002456,53.2151,137.2123,66.2105,55.9053,-0.0014135999999999,-0.00022726,0.0,0 STARLINK-3959,1 52564U 22051AH  22245.91668981 -.00022726  00000-0 -14136-2 0  9993,2 52564  53.2151 137.2123 0002456  66.2105  55.9053 15.08855630  1309,6917.833000000001,95.437,541.3969999999998,537.999,0.0
52564.0,STARLINK-3959,PAYLOAD,2022-09-03 08:00:01,15.08870779,0.0002431,53.2152,135.3414,64.9508,161.6044,-0.0016052,-0.00025767,0.0,0 STARLINK-3959,1 52564U 22051AH  22246.33334491 -.00025767  00000-0 -16052-2 0  9993,2 52564  53.2152 135.3414 0002431  64.9508 161.6044 15.08870779 17704,6917.786,95.436,541.3330000000002,537.97,0.0
52564.0,STARLINK-3959,PAYLOAD,2022-09-03 14:00:01,15.08850878,0.0002359,53.2154,134.218,68.6364,76.6396,0.00094759,0.0001483,0.0,0 STARLINK-3959,1 52564U 22051AH  22246.58334491  .00014830  00000-0  94759-3 0  9998,2 52564  53.2154 134.2180 0002359  68.6364  76.6396 15.08850878  1306,6917.847,95.437,541.344,538.08,0.0
52564.0,STARLINK-3959,PAYLOAD,2022-09-03 22:00:00,15.0885517,0.0002423,53.2156,132.72299999999998,65.7875,91.1072,-0.0013475,-0.0002168,0.0,0 STARLINK-3959,1 52564U 22051AH  22246.91667824 -.00021680  00000-0 -13475-2 0  9992,2 52564  53.2156 132.7230 0002423  65.7875  91.1072 15.08855170  1307,6917.834,95.437,541.375,538.023,0.0
52564.0,STARLINK-3959,PAYLOAD,2022-09-04 06:00:00,15.08862499,0.0002403,53.2156,131.2267,63.2951,105.204,-0.00014338,-2.571e-05,0.0,0 STARLINK-3959,1 52564U 22051AH  22247.25001157 -.00002571  00000-0 -14338-3 0  9999,2 52564  53.2156 131.2267 0002403  63.2951 105.2040 15.08862499 17847,6917.812,95.436,541.339,538.014,0.0
52564.0,STARLINK-3959,PAYLOAD,2022-09-04 14:00:01,15.08844916,0.0002254,53.2161,129.7286,68.3968,111.7947,0.0009817,0.00015372,0.0,0 STARLINK-3959,1 52564U 22051AH  22247.58335648  .00015372  00000-0  98170-3 0  9997,2 52564  53.2161 129.7286 0002254  68.3968 111.7947 15.08844916  1300,6917.865,95.437,541.29,538.1709999999998,0.0
52564.0,STARLINK-3959,PAYLOAD,2022-09-04 20:00:01,15.08874951,0.0002278,53.2163,128.6074,66.3092,32.5194,-0.0029081,-0.00046319,0.0,0 STARLINK-3959,1 52564U 22051AH  22247.83334491 -.00046319  00000-0 -29081-2 0  9991,2 52564  53.2163 128.6074 0002278  66.3092  32.5194 15.08874951  1303,6917.774,95.435,541.214,538.063,0.0
52564.0,STARLINK-3959,PAYLOAD,2022-09-05 14:00:01,15.08853284,0.0002063,53.2167,125.2395,68.2634,146.6928,-0.00023884,-4.089e-05,0.0,0 STARLINK-3959,1 52564U 22051AH  22248.58334491 -.00004089  00000-0 -23884-3 0  9998,2 52564  53.2167 125.2395 0002063  68.2634 146.6928 15.08853284 18048,6917.84,95.437,541.132,538.278,0.0
52564.0,STARLINK-3959,PAYLOAD,2022-09-05 20:00:01,15.08856387,0.0002061999999999,53.2169,124.1184,64.756,68.9019,-0.0043688,-0.00069183,0.0,0 STARLINK-3959,1 52564U 22051AH  22248.83334491 -.00069183  00000-0 -43688-2 0  9995,2 52564  53.2169 124.1184 0002062  64.7560  68.9019 15.08856387 18079,6917.83,95.437,541.122,538.269,0.0
52564.0,STARLINK-3959,PAYLOAD,2022-09-05 22:00:00,15.08831582,0.0002077,53.2168,123.7449,62.3469,164.21599999999995,-0.0021732,-0.00034701,0.0,0 STARLINK-3959,1 52564U 22051AH  22248.91667824 -.00034701  00000-0 -21732-2 0  9997,2 52564  53.2168 123.7449 0002077  62.3469 164.2160 15.08831582  1300,6917.906,95.438,541.2080000000002,538.3340000000002,0.0
52564.0,STARLINK-3959,PAYLOAD,2022-09-06 06:00:00,15.08841876,0.0001972,53.2168,122.2483,60.5868,177.5377,-0.0031679,-0.00050357,0.0,0 STARLINK-3959,1 52564U 22051AH  22249.25001157 -.00050357  00000-0 -31679-2 0  9992,2 52564  53.2168 122.2483 0001972  60.5868 177.5377 15.08841876 18142,6917.875,95.437,541.104,538.375,0.0
52564.0,STARLINK-3959,PAYLOAD,2022-09-06 14:00:01,15.08788065,0.0001814,53.217,120.7507,66.3404,183.3624,0.0023701,0.0003758,0.0,0 STARLINK-3959,1 52564U 22051AH  22249.58334491  .00037580  00000-0  23701-2 0  9996,2 52564  53.2170 120.7507 0001814  66.3404 183.3624 15.08788065  1300,6918.0390000000025,95.441,541.159,538.649,0.0
52564.0,STARLINK-3959,PAYLOAD,2022-09-06 22:00:00,15.08805691,0.0001954,53.217,119.2562,61.4959,199.7513,-0.00026572,-4.511e-05,0.0,0 STARLINK-3959,1 52564U 22051AH  22249.91667824 -.00004511  00000-0 -26572-3 0  9992,2 52564  53.2170 119.2562 0001954  61.4959 199.7513 15.08805691 18244,6917.985,95.44,541.202,538.498,0.0
52564.0,STARLINK-3959,PAYLOAD,2022-09-07 14:00:01,15.08806146,0.0001821,53.2169,116.262,68.6248,215.7443,0.0025963,0.00041236,0.0,0 STARLINK-3959,1 52564U 22051AH  22250.58334491  .00041236  00000-0  25963-2 0  9993,2 52564  53.2169 116.2620 0001821  68.6248 215.7443 15.08806146 18345,6917.984,95.44,541.109,538.589,0.0
52564.0,STARLINK-3959,PAYLOAD,2022-09-07 22:00:00,15.08825629,0.0001954,53.2167,114.7676,63.3458,232.5944,-0.0001047,-1.953e-05,0.0,0 STARLINK-3959,1 52564U 22051AH  22250.91667824 -.00001953  00000-0 -10470-3 0  9991,2 52564  53.2167 114.7676 0001954  63.3458 232.5944 15.08825629  1307,6917.924,95.438,541.141,538.438,0.0
52564.0,STARLINK-3959,PAYLOAD,2022-09-08 06:00:00,15.08850988,0.0001888,53.2162,113.2707,63.5188,243.9965,-0.0017347999999999,-0.000278,0.0,0 STARLINK-3959,1 52564U 22051AH  22251.25001157 -.00027800  00000-0 -17348-2 0  9999,2 52564  53.2162 113.2707 0001888  63.5188 243.9965 15.08850988 18447,6917.847,95.437,541.018,538.406,0.0
52564.0,STARLINK-3959,PAYLOAD,2022-09-08 14:00:01,15.08828339,0.0001851,53.2163,111.7732,70.8644,248.2468,0.0023279,0.00036943,0.0,0 STARLINK-3959,1 52564U 22051AH  22251.58334491  .00036943  00000-0  23279-2 0  9991,2 52564  53.2163 111.7732 0001851  70.8644 248.2468 15.08828339  1305,6917.916,95.438,541.062,538.501,0.0
52564.0,STARLINK-3959,PAYLOAD,2022-09-08 22:00:00,15.08845526,0.0001966,53.216,110.2786,64.801,265.9104,0.00021687,3.166e-05,0.0,0 STARLINK-3959,1 52564U 22051AH  22251.91667824  .00003166  00000-0  21687-3 0  9990,2 52564  53.2160 110.2786 0001966  64.8010 265.9104 15.08845526  1302,6917.863,95.437,541.089,538.368,0.0
52564.0,STARLINK-3959,PAYLOAD,2022-09-09 00:00:02,15.08833842,0.0001949,53.2161,109.9047,63.8517,359.827,0.0020066,0.00031786,0.0,0 STARLINK-3959,1 52564U 22051AH  22252.00002315  .00031786  00000-0  20066-2 0  9997,2 52564  53.2161 109.9047 0001949  63.8517 359.8270 15.08833842 18550,6917.899,95.438,541.113,538.4159999999998,0.0
52564.0,STARLINK-3959,PAYLOAD,2022-09-09 14:00:01,15.08826408,0.0001776999999999,53.2157,107.2839,70.6449,283.2805,0.0021550999999999,0.00034164,0.0,0 STARLINK-3959,1 52564U 22051AH  22252.58334491  .00034164  00000-0  21551-2 0  9996,2 52564  53.2157 107.2839 0001777  70.6449 283.2805 15.08826408  1303,6917.922,95.438,541.016,538.558,0.0
52564.0,STARLINK-3959,PAYLOAD,2022-09-09 22:00:00,15.08838872,0.0001904,53.2155,105.7892,63.9591,301.562,0.00051715,7.952e-05,0.0,0 STARLINK-3959,1 52564U 22051AH  22252.91667824  .00007952  00000-0  51715-3 0  9993,2 52564  53.2155 105.7892 0001904  63.9591 301.5620 15.08838872  1305,6917.884,95.438,541.066,538.432,0.0
52564.0,STARLINK-3959,PAYLOAD,2022-09-10 06:00:02,15.08878309,0.0001781999999999,53.2153,104.291,63.2838,313.8889,-0.0046209,-0.00073161,0.0,0 STARLINK-3959,1 52564U 22051AH  22253.25002315 -.00073161  00000-0 -46209-2 0  9997,2 52564  53.2153 104.2910 0001782  63.2838 313.8889 15.08878309 18747,6917.763000000001,95.435,540.861,538.396,0.0
52564.0,STARLINK-3959,PAYLOAD,2022-09-10 14:00:01,15.08835539,0.0001345,53.2154,102.7945,73.805,314.7982,0.0018208999999999,0.00028807,0.0,0 STARLINK-3959,1 52564U 22051AH  22253.58334491  .00028807  00000-0  18209-2 0  9990,2 52564  53.2154 102.7945 0001345  73.8050 314.7982 15.08835539 18794,6917.894,95.438,540.689,538.8290000000002,0.0
52564.0,STARLINK-3959,PAYLOAD,2022-09-10 22:00:00,15.08837825,0.0001481,53.2154,101.2998,64.7733,335.4283,0.00059243,9.153e-05,0.0,0 STARLINK-3959,1 52564U 22051AH  22253.91667824  .00009153  00000-0  59243-3 0  9993,2 52564  53.2154 101.2998 0001481  64.7733 335.4283 15.08837825  1307,6917.887,95.438,540.7769999999998,538.727,0.0
52564.0,STARLINK-3959,PAYLOAD,2022-09-11 06:00:00,15.08871538,0.0001401,53.2154,99.802,65.3422,346.4636,-0.0015039,-0.00024163,0.0,0 STARLINK-3959,1 52564U 22051AH  22254.25001157 -.00024163  00000-0 -15039-2 0  9996,2 52564  53.2154  99.8020 0001401  65.3422 346.4636 15.08871538 18894,6917.784000000002,95.436,540.618,538.68,0.0
